H1 CPF 01  gfz 2022 08 28 12  7402 tandemx   
H2 1003001  6202 36605    2022 08 28 00 59 42 2022 09 02 00 00 42   120 1 1  0 0 0
H9
10 0 59820  16542.000000  0    4477145.574   1038137.730  -5139481.402
10 0 59820  16662.000000  0    3836848.225    673304.056  -5689125.506
10 0 59820  16782.000000  0    3123591.755    308632.057  -6139350.464
10 0 59820  16902.000000  0    2349867.725    -48378.339  -6482380.457
10 0 59820  17022.000000  0    1529314.459   -390599.278  -6712302.902
10 0 59820  17142.000000  0     676478.066   -711412.797  -6825161.009
10 0 59820  17262.000000  0    -193443.092  -1004834.828  -6819014.568
10 0 59820  17382.000000  0   -1064862.986  -1265623.036  -6693968.239
10 0 59820  17502.000000  0   -1922080.180  -1489368.045  -6452170.801
10 0 59820  17622.000000  0   -2749554.755  -1672566.753  -6097781.849
10 0 59820  17742.000000  0   -3532183.469  -1812676.278  -5636907.364
10 0 59820  17862.000000  0   -4255573.088  -1908149.176  -5077506.768
10 0 59820  17982.000000  0   -4906307.593  -1958448.116  -4429266.913
10 0 59820  18102.000000  0   -5472201.859  -1964039.483  -3703445.321
10 0 59820  18222.000000  0   -5942538.600  -1926366.278  -2912684.114
10 0 59820  18342.000000  0   -6308282.060  -1847799.934  -2070795.420
10 0 59820  18462.000000  0   -6562263.014  -1731571.749  -1192522.515
10 0 59820  18582.000000  0   -6699330.210  -1581685.545   -293280.012
10 0 59820  18702.000000  0   -6716463.759  -1402813.031    611121.744
10 0 59820  18822.000000  0   -6612846.414  -1200174.248   1504762.563
10 0 59820  18942.000000  0   -6389890.117   -979406.615   2371901.765
10 0 59820  19062.000000  0   -6051217.535   -746425.919   3197264.373
10 0 59820  19182.000000  0   -5602599.161   -507282.216   3966318.187
10 0 59820  19302.000000  0   -5051846.102   -268014.851   4665535.387
10 0 59820  19422.000000  0   -4408663.559    -34510.949   5282631.262
10 0 59820  19542.000000  0   -3684470.921    187630.558   5806778.417
10 0 59820  19662.000000  0   -2892189.842    393225.484   6228793.917
10 0 59820  19782.000000  0   -2046005.611    577618.474   6541294.562
10 0 59820  19902.000000  0   -1161107.768    736782.735   6738820.617
10 0 59820  20022.000000  0    -253414.109    867404.447   6817924.859
10 0 59820  20142.000000  0     660715.709    966949.385   6777228.151
10 0 59820  20262.000000  0    1564773.895   1033711.429   6617441.911
10 0 59820  20382.000000  0    2442401.623   1066842.186   6341356.522
10 0 59820  20502.000000  0    3277684.644   1066360.700   5953796.219
10 0 59820  20622.000000  0    4055444.284   1033143.445   5461539.831
10 0 59820  20742.000000  0    4761516.177    968894.875   4873207.382
10 0 59820  20862.000000  0    5383014.442    876098.620   4199116.822
10 0 59820  20982.000000  0    5908577.070    757950.816   3451107.507
10 0 59820  21102.000000  0    6328583.702    618276.839   2642332.745
10 0 59820  21222.000000  0    6635340.235    461432.145   1787027.524
10 0 59820  21342.000000  0    6823229.919    292190.604    900254.643
10 0 59820  21462.000000  0    6888822.011    115622.744     -2367.629
10 0 59820  21582.000000  0    6830938.062    -63033.428   -904949.113
10 0 59820  21702.000000  0    6650671.540   -238505.405  -1791616.813
10 0 59820  21822.000000  0    6351361.620   -405619.289  -2646802.187
10 0 59820  21942.000000  0    5938522.300   -559430.215  -3455519.984
10 0 59820  22062.000000  0    5419729.501   -695346.294  -4203633.688
10 0 59820  22182.000000  0    4804468.824   -809242.630  -4878101.616
10 0 59820  22302.000000  0    4103949.995   -897562.826  -5467198.791
10 0 59820  22422.000000  0    3330892.765   -957407.163  -5960713.021
10 0 59820  22542.000000  0    2499288.028   -986605.333  -6350111.785
10 0 59820  22662.000000  0    1624140.590   -983770.842  -6628678.099
10 0 59820  22782.000000  0     721198.774   -948338.186  -6791615.244
10 0 59820  22902.000000  0    -193325.583   -880582.224  -6836121.055
10 0 59820  23022.000000  0   -1103042.301   -781618.329  -6761430.162
10 0 59820  23142.000000  0   -1991669.534   -653384.490  -6568826.205
10 0 59820  23262.000000  0   -2843318.910   -498604.652  -6261621.274
10 0 59820  23382.000000  0   -3642772.671   -320734.748  -5845104.548
10 0 59820  23502.000000  0   -4375753.085   -123891.482  -5326462.350
10 0 59820  23622.000000  0   -5029179.140     87235.065  -4714664.773
10 0 59820  23742.000000  0   -5591404.667    307482.983  -4020322.731
10 0 59820  23862.000000  0   -6052435.903    531334.045  -3255514.731
10 0 59820  23982.000000  0   -6404121.161    753040.006  -2433584.210
10 0 59820  24102.000000  0   -6640307.833    966757.519  -1568910.476
10 0 59820  24222.000000  0   -6756963.518   1166687.956   -676657.727
10 0 59820  24342.000000  0   -6752256.350   1347218.911    227496.602
10 0 59820  24462.000000  0   -6626588.993   1503063.300   1127644.051
10 0 59820  24582.000000  0   -6382590.089   1629393.659   2007932.627
10 0 59820  24702.000000  0   -6025060.709   1721967.454   2852855.334
10 0 59820  24822.000000  0   -5560876.347   1777239.573   3647532.296
10 0 59820  24942.000000  0   -4998846.917   1792459.121   4377979.115
10 0 59820  25062.000000  0   -4349540.166   1765748.647   5031355.494
10 0 59820  25182.000000  0   -3625073.873   1696164.129   5596190.348
10 0 59820  25302.000000  0   -2838881.881   1583734.485   6062581.034
10 0 59820  25422.000000  0   -2005457.098   1429480.203   6422363.729
10 0 59820  25542.000000  0   -1140077.435   1235409.614   6669250.023
10 0 59820  25662.000000  0    -258522.541   1004493.852   6798929.489
10 0 59820  25782.000000  0     623213.847    740621.267   6809139.564
10 0 59820  25902.000000  0    1489213.002    448531.661   6699702.395
10 0 59820  26022.000000  0    2323917.280    133731.718   6472527.815
10 0 59820  26142.000000  0    3112409.035   -197607.750   6131583.254
10 0 59820  26262.000000  0    3840679.200   -538771.255   5682829.193
10 0 59820  26382.000000  0    4495879.623   -882632.495   5134120.197
10 0 59820  26502.000000  0    5066555.264  -1221800.934   4495073.778
10 0 59820  26622.000000  0    5542852.421  -1548777.502   3776906.829
10 0 59820  26742.000000  0    5916698.084  -1856117.075   2992241.730
10 0 59820  26862.000000  0    6181946.144  -2136594.029   2154884.537
10 0 59820  26982.000000  0    6334485.977  -2383366.561   1279579.422
10 0 59820  27102.000000  0    6372311.640  -2590135.691    381743.685
10 0 59820  27222.000000  0    6295548.340  -2751295.268   -522811.944
10 0 59820  27342.000000  0    6106436.175  -2862068.374  -1418170.887
10 0 59820  27462.000000  0    5809269.610  -2918627.095  -2288600.084
10 0 59820  27582.000000  0    5410296.388  -2918191.999  -3118832.890
10 0 59820  27702.000000  0    4917579.324  -2859109.387  -3894340.726
10 0 59820  27822.000000  0    4340824.865  -2740905.651  -4601587.733
10 0 59820  27942.000000  0    3691182.112  -2564316.921  -5228264.630
10 0 59820  28062.000000  0    2981017.749  -2331293.210  -5763495.359
10 0 59820  28182.000000  0    2223675.585  -2044978.745  -6198014.982
10 0 59820  28302.000000  0    1433224.021  -1709669.280  -6524320.528
10 0 59820  28422.000000  0     624193.702  -1330745.453  -6736790.088
10 0 59820  28542.000000  0    -188686.735   -914585.860  -6831769.007
10 0 59820  28662.000000  0    -990753.338   -468460.825  -6807625.251
10 0 59820  28782.000000  0   -1767665.004      -408.278  -6664774.425
10 0 59820  28902.000000  0   -2505654.107    480907.644  -6405672.549
10 0 59820  29022.000000  0   -3191764.643    966352.229  -6034778.137
10 0 59820  29142.000000  0   -3814076.431   1446488.798  -5558484.588
10 0 59820  29262.000000  0   -4361913.645   1911757.601  -4985021.483
10 0 59820  29382.000000  0   -4826032.667   2352663.755  -4324324.159
10 0 59820  29502.000000  0   -5198784.948   2759969.550  -3587871.416
10 0 59820  29622.000000  0   -5474251.612   3124886.310  -2788495.184
10 0 59820  29742.000000  0   -5648348.031   3439263.623  -1940163.289
10 0 59820  29862.000000  0   -5718893.567   3695770.991  -1057737.231
10 0 59820  29982.000000  0   -5685643.967   3888066.057   -156709.424
10 0 59820  30102.000000  0   -5550285.699   4010946.071    747074.211
10 0 59820  30222.000000  0   -5316390.493   4060477.390   1637702.334
10 0 59820  30342.000000  0   -4989330.117   4034098.891   2499487.523
10 0 59820  30462.000000  0   -4576155.868   3930698.050   3317250.390
10 0 59820  30582.000000  0   -4085445.404   3750657.643   4076594.590
10 0 59820  30702.000000  0   -3527120.224   3495870.269   4764164.616
10 0 59820  30822.000000  0   -2912239.832   3169722.963   5367882.309
10 0 59820  30942.000000  0   -2252776.199   2777051.133   5877157.781
10 0 59820  31062.000000  0   -1561375.329   2324063.625   6283071.492
10 0 59820  31182.000000  0    -851109.890   1818240.273   6578524.383
10 0 59820  31302.000000  0    -135230.876   1268205.276   6758354.252
10 0 59820  31422.000000  0     573079.234    683578.279   6819421.189
10 0 59820  31542.000000  0    1260948.737     74805.795   6760658.488
10 0 59820  31662.000000  0    1916049.407   -547024.633   6583090.395
10 0 59820  31782.000000  0    2526816.869  -1170385.961   6289816.030
10 0 59820  31902.000000  0    3082655.463  -1783524.379   5885959.402
10 0 59820  32022.000000  0    3574125.146  -2374681.302   5378585.491
10 0 59820  32142.000000  0    3993105.713  -2932319.692   4776582.167
10 0 59820  32262.000000  0    4332935.941  -3445351.574   4090510.330
10 0 59820  32382.000000  0    4588524.904  -3903362.306   3332422.642
10 0 59820  32502.000000  0    4756433.268  -4296826.245   2515653.310
10 0 59820  32622.000000  0    4834921.759  -4617308.136   1654581.192
10 0 59820  32742.000000  0    4823964.420  -4857645.282    764371.990
10 0 59820  32862.000000  0    4725227.016  -5012106.846   -139295.592
10 0 59820  32982.000000  0    4542010.984  -5076524.949  -1040513.998
99
